ALOS-4 (DAICHI-4)       
1 60182U 24123A   24269.90248829  .00006587  00000+0  88784-3 0  9997
2 60182  97.9207   5.1116 0001522 100.6741 259.4642 14.79480971 12832
